{
  "type": "FeatureCollection",
  "features": [
    {
      "type": "Feature",
      "properties": {
        "norad_id": 38755,
        "name": "SPOT 6",
        "group": "resource",
        "lat": -0.9154716833374087,
        "lon": 60.609862700770975,
        "alt_km": 700.7898202752767,
        "timestamp": "2025-12-21T20:41:07.642655+00:00",
        "meta_object_name": "SPOT 6",
        "meta_object_id": "2012-047A",
        "meta_epoch": "2025-12-21T12:27:26.637984",
        "meta_mean_motion": 14.5854025,
        "meta_eccentricity": 0.00013174,
        "meta_inclination": 98.1567,
        "meta_ra_of_asc_node": 60.1421,
        "meta_arg_of_pericenter": 77.6678,
        "meta_mean_anomaly": 282.4669,
        "meta_ephemeris_type": 0,
        "meta_classification_type": "U",
        "meta_norad_cat_id": 38755,
        "meta_element_set_no": 999,
        "meta_rev_at_epoch": 70715,
        "meta_bstar": 0.00012822571,
        "meta_mean_motion_dot": 5.51e-06,
        "meta_mean_motion_ddot": 0,
        "tle_line1": "1 38755U 12047A   25355.51905831  .00000551  00000+0  12823-3 0  9993",
        "tle_line2": "2 38755  98.1567  60.1421 0001317  77.6678 282.4669 14.58540250707154"
      },
      "geometry": {
        "type": "Point",
        "coordinates": [
          60.609862700770975,
          -0.9154716833374087
        ]
      }
    },
    {
      "type": "Feature",
      "properties": {
        "norad_id": 39019,
        "name": "PLEIADES 1B",
        "group": "resource",
        "lat": -75.01603559374819,
        "lon": -144.1343212618512,
        "alt_km": 705.9679487462809,
        "timestamp": "2025-12-21T20:41:07.642664+00:00",
        "meta_object_name": "PLEIADES 1B",
        "meta_object_id": "2012-068A",
        "meta_epoch": "2025-12-21T12:55:23.685312",
        "meta_mean_motion": 14.58560964,
        "meta_eccentricity": 0.00011795,
        "meta_inclination": 98.1791,
        "meta_ra_of_asc_node": 68.0517,
        "meta_arg_of_pericenter": 84.1993,
        "meta_mean_anomaly": 275.9341,
        "meta_ephemeris_type": 0,
        "meta_classification_type": "U",
        "meta_norad_cat_id": 39019,
        "meta_element_set_no": 999,
        "meta_rev_at_epoch": 69495,
        "meta_bstar": 0.00012788769,
        "meta_mean_motion_dot": 5.49e-06,
        "meta_mean_motion_ddot": 0,
        "tle_line1": "1 39019U 12068A   25355.53846858  .00000549  00000+0  12789-3 0  9993",
        "tle_line2": "2 39019  98.1791  68.0517 0001179  84.1993 275.9341 14.58560964694950"
      },
      "geometry": {
        "type": "Point",
        "coordinates": [
          -144.1343212618512,
          -75.01603559374819
        ]
      }
    },
    {
      "type": "Feature",
      "properties": {
        "norad_id": 39030,
        "name": "GOKTURK 2",
        "group": "resource",
        "lat": -57.904342684870215,
        "lon": -150.49526512312826,
        "alt_km": 652.2081851725225,
        "timestamp": "2025-12-21T20:41:07.642673+00:00",
        "meta_object_name": "GOKTURK 2",
        "meta_object_id": "2012-073A",
        "meta_epoch": "2025-12-21T14:26:24.910944",
        "meta_mean_motion": 14.7530284,
        "meta_eccentricity": 0.00013222,
        "meta_inclination": 97.6885,
        "meta_ra_of_asc_node": 196.819,
        "meta_arg_of_pericenter": 109.0146,
        "meta_mean_anomaly": 251.1208,
        "meta_ephemeris_type": 0,
        "meta_classification_type": "U",
        "meta_norad_cat_id": 39030,
        "meta_element_set_no": 999,
        "meta_rev_at_epoch": 69832,
        "meta_bstar": 0.00010473569,
        "meta_mean_motion_dot": 6.62e-06,
        "meta_mean_motion_ddot": 0,
        "tle_line1": "1 39030U 12073A   25355.60167721  .00000662  00000+0  10474-3 0  9990",
        "tle_line2": "2 39030  97.6885 196.8190 0001322 109.0146 251.1208 14.75302840698324"
      },
      "geometry": {
        "type": "Point",
        "coordinates": [
          -150.49526512312826,
          -57.904342684870215
        ]
      }
    },
    {
      "type": "Feature",
      "properties": {
        "norad_id": 39084,
        "name": "LANDSAT 8",
        "group": "resource",
        "lat": 19.74677421452551,
        "lon": 60.83083211786706,
        "alt_km": 702.3554477200705,
        "timestamp": "2025-12-21T20:41:07.642682+00:00",
        "meta_object_name": "LANDSAT 8",
        "meta_object_id": "2013-008A",
        "meta_epoch": "2025-12-21T10:42:20.579328",
        "meta_mean_motion": 14.5711087,
        "meta_eccentricity": 0.00010738,
        "meta_inclination": 98.2061,
        "meta_ra_of_asc_node": 63.3906,
        "meta_arg_of_pericenter": 91.3058,
        "meta_mean_anomaly": 268.8264,
        "meta_ephemeris_type": 0,
        "meta_classification_type": "U",
        "meta_norad_cat_id": 39084,
        "meta_element_set_no": 999,
        "meta_rev_at_epoch": 67201,
        "meta_bstar": 8.7368053e-05,
        "meta_mean_motion_dot": 3.48e-06,
        "meta_mean_motion_ddot": 0,
        "tle_line1": "1 39084U 13008A   25355.44607152  .00000348  00000+0  87368-4 0  9995",
        "tle_line2": "2 39084  98.2061  63.3906 0001073  91.3058 268.8264 14.57110870672012"
      },
      "geometry": {
        "type": "Point",
        "coordinates": [
          60.83083211786706,
          19.74677421452551
        ]
      }
    },
    {
      "type": "Feature",
      "properties": {
        "norad_id": 39086,
        "name": "SARAL",
        "group": "resource",
        "lat": -70.79041697517522,
        "lon": -154.74609293971517,
        "alt_km": 791.824341575747,
        "timestamp": "2025-12-21T20:41:07.642691+00:00",
        "meta_object_name": "SARAL",
        "meta_object_id": "2013-009A",
        "meta_epoch": "2025-12-21T14:19:13.381824",
        "meta_mean_motion": 14.32759928,
        "meta_eccentricity": 0.00029592,
        "meta_inclination": 98.5502,
        "meta_ra_of_asc_node": 179.4115,
        "meta_arg_of_pericenter": 92.1053,
        "meta_mean_anomaly": 268.047,
        "meta_ephemeris_type": 0,
        "meta_classification_type": "U",
        "meta_norad_cat_id": 39086,
        "meta_element_set_no": 999,
        "meta_rev_at_epoch": 67017,
        "meta_bstar": 5.3264879e-05,
        "meta_mean_motion_dot": 1.01e-06,
        "meta_mean_motion_ddot": 0,
        "tle_line1": "1 39086U 13009A   25355.59668266  .00000101  00000+0  53265-4 0  9993",
        "tle_line2": "2 39086  98.5502 179.4115 0002959  92.1053 268.0470 14.32759928670178"
      },
      "geometry": {
        "type": "Point",
        "coordinates": [
          -154.74609293971517,
          -70.79041697517522
        ]
      }
    },
    {
      "type": "Feature",
      "properties": {
        "norad_id": 39150,
        "name": "GAOFEN-1",
        "group": "resource",
        "lat": 58.6404716348868,
        "lon": 53.13475391332109,
        "alt_km": 627.4164342742488,
        "timestamp": "2025-12-21T20:41:07.642700+00:00",
        "meta_object_name": "GAOFEN-1",
        "meta_object_id": "2013-018A",
        "meta_epoch": "2025-12-21T13:54:39.236256",
        "meta_mean_motion": 14.76495832,
        "meta_eccentricity": 0.00184418,
        "meta_inclination": 97.9323,
        "meta_ra_of_asc_node": 66.0831,
        "meta_arg_of_pericenter": 116.1182,
        "meta_mean_anomaly": 244.1928,
        "meta_ephemeris_type": 0,
        "meta_classification_type": "U",
        "meta_norad_cat_id": 39150,
        "meta_element_set_no": 999,
        "meta_rev_at_epoch": 68203,
        "meta_bstar": 0.000156896,
        "meta_mean_motion_dot": 1.045e-05,
        "meta_mean_motion_ddot": 0,
        "tle_line1": "1 39150U 13018A   25355.57962079  .00001045  00000+0  15690-3 0  9999",
        "tle_line2": "2 39150  97.9323  66.0831 0018441 116.1182 244.1928 14.76495832682033"
      },
      "geometry": {
        "type": "Point",
        "coordinates": [
          53.13475391332109,
          58.6404716348868
        ]
      }
    },
    {
      "type": "Feature",
      "properties": {
        "norad_id": 39160,
        "name": "VNREDSAT 1",
        "group": "resource",
        "lat": 75.58112406739812,
        "lon": -96.3227643555956,
        "alt_km": 669.3179284200605,
        "timestamp": "2025-12-21T20:41:07.642709+00:00",
        "meta_object_name": "VNREDSAT 1",
        "meta_object_id": "2013-021B",
        "meta_epoch": "2025-12-21T15:18:12.788064",
        "meta_mean_motion": 14.64935352,
        "meta_eccentricity": 0.0001216,
        "meta_inclination": 97.9365,
        "meta_ra_of_asc_node": 50.6009,
        "meta_arg_of_pericenter": 80.6496,
        "meta_mean_anomaly": 279.4845,
        "meta_ephemeris_type": 0,
        "meta_classification_type": "U",
        "meta_norad_cat_id": 39160,
        "meta_element_set_no": 999,
        "meta_rev_at_epoch": 67429,
        "meta_bstar": 0.00011584268,
        "meta_mean_motion_dot": 5.74e-06,
        "meta_mean_motion_ddot": 0,
        "tle_line1": "1 39160U 13021B   25355.63764801  .00000574  00000+0  11584-3 0  9998",
        "tle_line2": "2 39160  97.9365  50.6009 0001216  80.6496 279.4845 14.64935352674292"
      },
      "geometry": {
        "type": "Point",
        "coordinates": [
          -96.3227643555956,
          75.58112406739812
        ]
      }
    }
  ]
}